OBJECT_NAME,OBJECT_ID,EPOCH,MEAN_MOTION,ECCENTRICITY,INCLINATION,RA_OF_ASC_NODE,ARG_OF_PERICENTER,MEAN_ANOMALY,EPHEMERIS_TYPE,CLASSIFICATION_TYPE,NORAD_CAT_ID,ELEMENT_SET_NO,REV_AT_EPOCH,BSTAR,MEAN_MOTION_DOT,MEAN_MOTION_DDOT
BEIDOU-2 IGSO-5 (C10),2011-073A,2026-06-08T06:57:59.620896,1.00275049,.01136404,47.6957,271.6577,221.6704,319.6056,0,U,37948,999,5304,0,-.161E-5,0
LUCH 5A (SDCM/PRN 140),2011-074B,2026-06-07T14:17:18.136320,1.00269830,.00023498,8.7288,73.9491,13.7811,189.5949,0,U,37951,999,5295,0,-.36E-6,0
BEIDOU-2 G5 (C05),2012-008A,2026-06-08T03:23:47.273568,1.00270155,.00094132,3.5504,69.7521,276.1223,20.2929,0,U,38091,999,5227,0,.73E-6,0
BEIDOU-2 M3 (C11),2012-018A,2026-06-08T01:26:58.354368,1.86230161,.0019923,55.7663,305.1829,274.8971,84.8667,0,U,38250,999,9577,0,-.55E-6,0
BEIDOU-2 M4 (C12),2012-018B,2026-06-07T23:49:27.858720,1.86229806,.00111023,55.6665,304.3996,277.5873,82.2781,0,U,38251,999,9577,0,-.55E-6,0
SES-5 (EGNOS/PRN 136),2012-036A,2026-06-07T18:35:03.300864,1.00272808,.00019825,0.0515,307.7529,128.4245,103.7453,0,U,38652,999,4436,0,.49E-6,0
BEIDOU-2 M6 (C14),2012-050B,2026-06-07T03:58:20.068320,1.86230975,.00138872,56.5356,63.2259,355.8219,4.1945,0,U,38775,999,9312,0,-.39E-6,0
GSAT-10 (GAGAN/PRN 128),2012-051B,2026-06-07T03:33:22.199040,1.00271795,.0008003,0.0171,262.4199,186.5141,302.9972,0,U,38779,999,4999,0,-.151E-5,0
GPS BIIF-3  (PRN 24),2012-053A,2026-06-07T08:16:39.168192,2.00567343,.01797508,53.5842,144.0025,65.6197,296.2414,0,U,38833,999,9924,0,.96E-6,0
GSAT0103 (GALILEO-FM3),2012-055A,2026-06-05T03:46:28.790688,1.70473498,.00051664,55.7989,101.8756,302.6849,57.2312,0,U,38857,999,8480,0,.18E-6,0
BEIDOU-2 G6 (C02),2012-059A,2026-06-08T00:55:51.752352,1.00274821,.00103582,4.3975,73.6191,324.5073,316.2719,0,U,38953,999,4981,0,-.161E-5,0
LUCH 5B (SDCM/PRN 125),2012-061A,2026-06-07T23:37:00.003648,1.00273999,.00018301,10.4610,49.9704,137.7633,46.5991,0,U,38977,999,4951,0,-.125E-5,0
COSMOS 2485 (747),2013-019A,2026-06-06T02:48:31.416192,2.13103501,.00234828,65.4139,73.9758,234.9271,124.8751,0,U,39155,999,10204,0,-.7E-7,0
GPS BIIF-4  (PRN 27),2013-023A,2026-06-07T05:04:40.775520,2.00563548,.01416081,54.5121,269.3802,50.9995,310.2743,0,U,39166,999,9568,0,-.31E-6,0
IRNSS-1A,2013-034A,2026-05-22T20:37:38.469792,1.00280263,.00166187,35.6649,64.2334,185.3754,355.4646,0,U,39199,999,4711,0,.59E-6,0
GPS BIIF-5  (PRN 30),2014-008A,2026-06-08T05:02:50.225856,2.00559220,.00842371,53.6532,149.6858,231.1306,128.1213,0,U,39533,999,8950,0,.106E-5,0
ASTRA 5B (EGNOS/PRN 123),2014-011B,2026-06-08T06:39:01.439136,1.00270013,.00021103,0.0562,318.3656,106.7293,314.8327,0,U,39617,999,4457,0,.153E-5,0
COSMOS 2492 (754),2014-012A,2026-06-07T00:20:47.349888,2.13103539,.00105349,65.3041,314.2816,326.6217,33.3091,0,U,39620,999,9502,0,-.28E-6,0
IRNSS-1B,2014-017A,2026-05-19T20:39:38.653920,1.00280229,.00242269,28.9733,240.8911,185.2284,176.5740,0,U,39635,999,4451,0,.103E-5,0
LUCH 5V (SDCM/PRN 141),2014-023A,2026-06-08T03:33:46.315872,1.00267721,.00028344,5.1103,69.8404,31.0907,303.7417,0,U,39727,999,4426,0,-.253E-5,0
GPS BIIF-6  (PRN 06),2014-026A,2026-06-07T23:41:28.923648,2.00561693,.00382497,56.5029,331.8757,326.7038,33.0643,0,U,39741,999,8835,0,-.57E-6,0
COSMOS 2500 (755),2014-032A,2026-06-05T07:22:31.262592,2.13106228,.00069216,65.2399,314.0875,182.6987,177.2913,0,U,40001,999,9320,0,-.32E-6,0
GPS BIIF-7  (PRN 09),2014-045A,2026-06-08T01:53:28.758912,2.00557808,.00329201,55.3475,88.8279,118.3764,241.9512,0,U,40105,999,8589,0,.5E-7,0
GSAT0201 (GALILEO 5),2014-050A,2026-06-08T06:06:00.791712,1.85520056,.16731725,48.8853,273.8028,179.0435,181.3650,0,U,40128,999,7815,0,-.52E-6,0
GSAT0202 (GALILEO 6),2014-050B,2026-06-07T10:21:46.001952,1.85520607,.16743536,48.9030,272.9219,179.7431,180.3996,0,U,40129,999,8030,0,-.5E-6,0
IRNSS-1C,2014-061A,2026-06-07T22:09:13.889088,1.00270792,.00226277,6.4950,89.1037,1.3950,221.1503,0,U,40269,999,4259,0,-.146E-5,0
GPS BIIF-8  (PRN 03),2014-068A,2026-06-06T22:51:23.502240,2.00575638,.0066821,56.9806,31.3491,70.2149,290.5590,0,U,40294,999,8500,0,-.66E-6,0
COSMOS 2501 (702K),2014-075A,2026-06-07T10:42:38.551392,2.13101441,.00224534,63.6157,190.7092,212.1343,147.7942,0,U,40315,999,8964,0,.89E-6,0
GPS BIIF-9  (PRN 26),2015-013A,2026-06-07T02:10:07.423680,2.00552172,.01093482,53.1686,204.5953,40.1244,320.7540,0,U,40534,999,8162,0,.57E-6,0
GSAT0203 (GALILEO 7),2015-017A,2026-06-07T19:51:37.128384,1.70476158,.00020888,56.7903,341.8507,280.9865,79.0049,0,U,40544,999,6904,0,-.63E-6,0
GSAT0204 (GALILEO 8),2015-017B,2026-06-05T03:36:30.892320,1.70475724,.0001822,56.7982,341.9422,253.1460,106.8459,0,U,40545,999,3204,0,-.69E-6,0
